0 COSMOS 2251 DEB
1 33947U 93036FC  13281.54769479  .00013909  00000-0  17617-2 0  2532
2 33947 073.9523 325.5310 0079816 172.7791 307.4121 14.79543074248704
0 COSMOS 2251 DEB
1 33947U 93036FC  13282.49297238  .00024294  00000-0  30652-2 0  2540
2 33947 073.9524 323.6604 0079666 170.6447 302.3972 14.79603714248849
0 COSMOS 2251 DEB
1 33947U 93036FC  13282.95847066  .00021195  00000-0  26755-2 0  2558
2 33947 073.9525 322.7393 0079628 169.6078 261.9229 14.79611414248910
0 COSMOS 2251 DEB
1 33947U 93036FC  13284.11047596  .00019098  00000-0  24102-2 0  2562
2 33947 073.9526 320.4595 0079530 167.0484 278.2835 14.79647049249081
0 COSMOS 2251 DEB
1 33947U 93036FC  13286.13853275  .00016071  00000-0  20275-2 0  2582
2 33947 073.9524 316.4461 0079287 162.5326 281.4433 14.79708483249383
0 COSMOS 2251 DEB
1 33947U 93036FC  13287.15742404  .00015237  00000-0  19218-2 0  2595
2 33947 073.9521 314.4295 0079210 160.2532 309.1023 14.79732890249532
0 COSMOS 2251 DEB
1 33947U 93036FC  13288.09857544  .00028254  00000-0  35506-2 0  2604
2 33947 073.9517 312.5669 0079006 158.1515 282.7295 14.79773608249675
0 COSMOS 2251 DEB
1 33947U 93036FC  13289.17740678  .00024297  00000-0  30524-2 0  2612
2 33947 073.9513 310.4310 0078925 155.7199 270.0200 14.79821057249837
0 COSMOS 2251 DEB
1 33947U 93036FC  13290.13209391  .00021247  00000-0  26693-2 0  2627
2 33947 073.9510 308.5409 0078908 153.5775 316.0580 14.79848224249970
0 COSMOS 2251 DEB
1 33947U 93036FC  13291.14676722  .00018466  00000-0  23196-2 0  2630
2 33947 073.9508 306.5318 0078808 151.3072 321.7854 14.79886713250120
0 COSMOS 2251 DEB
1 33947U 93036FC  13292.16139167  .00017412  00000-0  21863-2 0  2640
2 33947 073.9508 304.5227 0078734 149.0274 327.3946 14.79917082250277
0 COSMOS 2251 DEB
1 33947U 93036FC  13293.45502410  .00020075  00000-0  25172-2 0  2655
2 33947 073.9510 301.9610 0078586 146.1043 019.6528 14.79955655250460
0 COSMOS 2251 DEB
1 33947U 93036FC  13294.46634469  .00022206  00000-0  27811-2 0  2668
2 33947 073.9512 299.9582 0078593 143.8470 007.9030 14.79984080250611
0 COSMOS 2251 DEB
1 33947U 93036FC  13295.48072233  .00023982  00000-0  30002-2 0  2675
2 33947 073.9514 297.9493 0078570 141.5755 012.5589 14.80017168250761
